#dP2026  5 20  0  0  0.00000000     289 d+D   IGc20 FIT AIUB
## 2419 259200.00000000   300.00000000 61180 0.0000000000000
+  115   G01G02G03G04G05G06G07G08G09G10G11G12G13G14G15G16G17
+        G18G19G20G21G22G23G24G25G26G27G28G29G30G31G32R02R03
+        R04R05R06R07R08R09R11R12R14R15R16R17R18R19R20R21R22
+        R24E02E03E04E05E06E07E08E09E10E11E12E13E14E15E16E18
+        E19E21E23E25E26E27E28E29E30E31E32E33E34E36C06C07C08
+        C11C12C13C14C19C20C21C22C23C24C25C26C27C28C29C30C31
+        C32C33C34C35C36C37C38C39C41C42J02J03J04  0  0  0  0
++         5  5  5  5  5  5  5  5  5  5  5  5  5  5  5  5  5
++         5  5  5  5  5  5  5  5  5  5 10  5  5  5  5  5  5
++         5  5  5  5  5  5  5  5  5  5  5  5  5  5  5  5  5
++         5  5  5  5  5  5  5  5  5  5  5  5  5  5  5  5  5
++         5  5  5  5  5  5  5  5  5  5  5  5  5  5  5  5  5
++         5  5  5  5  5  5  5  5  5  5  5  5  5  5  5  5  5
++         5  5  5  5  5  5  5  5  5  5  5  5  5  0  0  0  0
%c M  cc GPS ccc cccc cccc cccc cccc ccccc ccccc ccccc ccccc
%c cc cc ccc ccc cccc cccc cccc cccc ccccc ccccc ccccc ccccc
%f  1.2500000  1.025000000  0.00000000000  0.000000000000000
%f  0.0000000  0.000000000  0.00000000000  0.000000000000000
%i    0    0    0    0      0      0      0      0         0
%i    0    0    0    0      0      0      0      0         0
/* Center for Orbit Determination in Europe (CODE)                              
/* MGEX orbits and clocks for year-day 2026-1400                                
/* Middle day of a 3-day long-arc multi-GNSS solution                           
/* Systems considered: GPS/GLONASS/Galileo/BeiDou/QZSS                          
/* Product reference - DOI 10.48620/97775                                       
/* PCV:IGS20_2417 OL/AL:FES2014b NONE     YN ORB:CoN CLK:CoN                    
*  2026  5 20  4 10  0.00000000
PG01 -21630.356552 -15487.499425   -361.175090    270.199159
PG02 -17632.393443 -16862.685894 -10801.185216    102.195191
PG03 -11565.044830 -14949.049694  18503.536007    457.065401
PG04 -18804.753870  -4468.653975  18325.333674     57.557504
PG05   5884.346838  24766.495105  -7692.781504   -233.176106
PG06 -10110.272266  10899.904527  22079.458631   -601.581267
PG07 -23510.082420  -4677.718680 -11215.640732   -186.635578
PG08  -8981.192047 -12892.928350 -21617.823062    439.448974
PG09 -23650.518343   5324.089660  10840.506372    748.019729
PG10  10897.674608 -17793.756899 -15959.254270   -583.987717
PG11   3721.781839  18267.972276  18999.361238   -334.520044
PG12  10548.343264  17134.091943  17051.675446   -607.560632
PG13  12038.651998  16789.239822  16601.663273    311.716396
PG14 -13126.057331  14813.521757 -17463.501165    746.726486
PG15  10686.505405  11716.393794 -21859.937615    413.069460
PG16    291.524954 -26155.022116  -3364.015747    266.266361
PG17 -22992.882178  13371.361976   2777.047739   -138.687147
PG18  22454.279327   2652.027231 -14106.381519   -348.291263
PG19 -16577.944390  16446.859112  12059.089506    700.188402
PG20   1740.773333  16020.119790 -21052.914806    161.894681
PG21  -1774.283964  26451.539364   1217.398897    413.817983
PG22 -11097.618589  20542.518652 -12624.000776      0.915958
PG23  14292.226411  -4808.428644 -21754.009356    649.415682
PG24  20162.402227  15821.655643  -8186.490518     19.542320
PG25  15198.225808   3838.013226  21081.331799    421.324804
PG26   4349.067083 -24454.113414   8585.729956   -366.842487
PG27   2830.571911 -17856.422141 -19680.178212      0.137808
PG28  10769.579500 -11197.642267  21549.498073   -524.609828
PG29  23752.044235  -1938.274464  11858.822315   -317.904288
PG30 -16738.085301   6758.073940 -19355.370143    228.857353
PG31    936.167568 -16515.043945  20428.103090   -147.992975
PG32  19400.792263 -16668.840079   7081.305908     63.462598
PR02  -9202.723905  18900.559620 -14447.161855     12.204647
PR03   6640.611522   8446.173418 -23087.163797     13.183277
PR04  17264.188237  -6126.612690 -17714.372485    356.170877
PR05  18720.224441 -17049.487524  -3011.667476    168.331617
PR06   9796.223222 -19366.293372  13395.719569    -19.805319
PR07  -6596.783396  -8531.284938  23157.244688    121.634812
PR08 -17397.404329   6530.137388  17554.570392     -4.799725
PR09  -3757.294518 -23843.516358   8414.381620    327.072046
PR11 -12615.173287  -7444.813084 -20874.608496     10.640462
PR12  -7000.079077  12181.298932 -21262.620741     69.273597
PR14  11085.080365  21274.402599   8652.725028     32.578746
PR15  12640.169006   6691.847297  21141.834123     56.094301
PR16   6807.766634 -12329.643183  21292.547625     49.399683
PR17  19257.434082  10827.597988  12793.883213    297.294142
PR18  24802.771953   5115.162024  -2848.021102    262.237953
PR19  17270.074301  -4412.433525 -18282.052125     47.964535
PR20   -829.721212 -11445.594202 -22769.470472    232.550749
PR21 -16408.138005 -11658.725692 -15655.297677   -309.138660
PR22 -24712.216437  -4459.313287   4523.353810    126.546428
PR24   1781.517100  11588.004563  22665.747757   -166.479386
PE02  -3735.115049 -26228.432961 -13193.304282     41.273353
PE03  -6036.327522 -15662.612232  24376.198686    -18.091616
PE04  24172.163557   3996.343422 -16615.847545   -152.352439
PE05  15412.373557 -18003.628047  17750.380503     35.673481
PE06  28186.707448  -3135.016631  -8502.360375   -273.455860
PE07 -27921.583430   9764.250098   -641.308971    -64.910712
PE08 -24021.846075  -4086.653625  16787.062653   -148.869927
PE09  27975.731079  -9696.960891    658.729084   -295.558457
PE10  23710.279257   7472.654604 -16076.694081   -793.143613
PE11  19152.282692  -2316.855106 -22460.430315   5063.369035
PE12  24246.672094  14877.903795  -8151.583638    -46.572991
PE13 -19393.562948   1809.468885  22290.682685    -55.141894
PE14  28685.327310  -1678.929395  13028.671871   3620.137487
PE15 -24152.898588 -15360.768810   7566.679153   -259.578684
PE16  17091.424222 -13399.546358  20128.353481    -33.132251
PE18 -19617.635735  -4385.456710 -14294.475208   2798.765323
PE19   4968.729666  15880.304275 -24471.247741   2969.776198
PE21  -9608.769728  27496.268529  -5264.906349   -743.583238
PE23   3844.815421  26228.452088  13156.393020    -35.585687
PE25   9945.819884 -27268.153821   5805.575142     21.939365
PE26  -3357.082963  17699.501988  23485.791933    309.285408
PE27 -17332.775961  12207.437035 -20657.606296   -993.315103
PE28  17074.247742  10904.203574 -21582.436177    -44.656866
PE29 -15247.692668  18127.607506 -17748.002188   -207.825936
PE30 -15037.840200  -9278.393659 -23755.060694  -1063.020118
PE31  14715.675245  10066.697118  23635.137960   -142.394210
PE32 -17024.972849 -10934.796122  21604.525397     16.827630
PE33  14435.690629  23148.430709  11486.109948    -15.519009
PE34 -14599.891099 -23114.558339 -11348.463193   -255.137355
PE36   3463.163127 -17477.146591 -23642.828489   -567.960978
PC06 -12263.987019  38779.548128  11433.524856    289.835294
PC07 -10001.542497  22424.597673 -34138.009197    -24.471024
PC08 -22468.671073  25905.605322  24339.850419   -233.452340
PC11 -13085.947205  13882.186935  20370.035114   -673.324249
PC12 -14949.290602  23551.556990   -405.908811    642.361188
PC13  -8166.208771 -15795.093555 -21522.538826   -922.732705
PC14  20099.868450 -11211.770280 -15796.533449   -348.245834
PC19  -8508.968846  24585.576488 -10016.245376   -941.661037
PC20 -18372.272680  19997.642034   6316.747163   -909.634090
PC21  18249.459267  -2432.868547 -20979.798812   -853.377368
PC22   7079.549665  15539.466514 -22075.095017    453.747268
PC23 -14591.272557 -23568.157836  -3177.021631   -459.873981
PC24  13089.408342 -10145.381530  22447.955427   -342.732987
PC25  -2791.718811 -24639.240949  12769.015924    863.074901
PC26  19366.615855   7767.407547  18525.044891   -642.431893
PC27 -27387.356074  -4012.695862  -3580.715142    634.935252
PC28 -18872.915484 -12636.828714 -16214.258117    519.226459
PC29  -4232.676294  16093.543758  22391.258155    606.003224
PC30 -22210.127967   9707.426745  13826.871078    451.775937
PC31  27536.300481   2774.710709   3461.844637    804.275420
PC32 -18167.460150   2396.232137  21043.577595   -916.577247
PC33   8408.968059 -24704.084369   9930.655400   -915.232945
PC34  22584.579898  -9436.092998 -13411.615748    949.680015
PC35  17621.092975  12804.372403  17402.770805   -393.117177
PC36   1866.190919  24550.466551 -13128.765454    280.079867
PC37 -19253.152145  -9172.645500 -17973.773666   -948.198185
PC38   2568.245551 -16355.554431 -22483.501523    138.628052
PC39  14196.715391  23879.936127   2784.746698   -862.888652
PC41  -6096.216284 -16657.273313  21603.991205   -940.919435
PC42  19045.512390 -18540.093046  -8560.361409   -892.600647
PJ02 -26399.616669  31658.451098  -3862.676167     -0.215464
PJ03 -26575.347653  22383.502466  29087.285020     -4.065644
PJ04 -33615.783155  25256.698909   1902.001950      0.517804
EOF
